[{"OBJECT_NAME":"SAUDISAT 1C (SO-50)","OBJECT_ID":"2002-058C","EPOCH":"2026-03-09T14:49:05.437056","MEAN_MOTION":14.82783142,"ECCENTRICITY":0.0075248,"INCLINATION":64.5524,"RA_OF_ASC_NODE":76.9957,"ARG_OF_PERICENTER":280.7497,"MEAN_ANOMALY":78.5144,"EPHEMERIS_TYPE":0,"CLASSIFICATION_TYPE":"U","NORAD_CAT_ID":27607,"ELEMENT_SET_NO":999,"REV_AT_EPOCH":24969,"BSTAR":0.00027919,"MEAN_MOTION_DOT":2.222e-5,"MEAN_MOTION_DDOT":0},{"OBJECT_NAME":"STARLINK-36191","OBJECT_ID":"2025-293W","EPOCH":"2026-03-09T11:40:33.579264","MEAN_MOTION":14.98334349,"ECCENTRICITY":0.00034509,"INCLINATION":70.0001,"RA_OF_ASC_NODE":95.1187,"ARG_OF_PERICENTER":270.4304,"MEAN_ANOMALY":89.646,"EPHEMERIS_TYPE":0,"CLASSIFICATION_TYPE":"U","NORAD_CAT_ID":67023,"ELEMENT_SET_NO":999,"REV_AT_EPOCH":1485,"BSTAR":0.00020941516,"MEAN_MOTION_DOT":2.407e-5,"MEAN_MOTION_DDOT":0}]
